{
  "type": "FeatureCollection",
  "features": [
    {
      "type": "Feature",
      "properties": {
        "norad_id": 41026,
        "name": "YAOGAN-28",
        "group": "resource",
        "lat": -55.22174614217529,
        "lon": -59.308396763835,
        "alt_km": 505.29689913087714,
        "timestamp": "2025-12-19T16:54:43.908281+00:00",
        "meta_object_name": "YAOGAN-28",
        "meta_object_id": "2015-064A",
        "meta_epoch": "2025-12-19T08:00:18.542880",
        "meta_mean_motion": 15.24456025,
        "meta_eccentricity": 0.00126114,
        "meta_inclination": 97.2809,
        "meta_ra_of_asc_node": 130.94,
        "meta_arg_of_pericenter": 105.0417,
        "meta_mean_anomaly": 255.2218,
        "meta_ephemeris_type": 0,
        "meta_classification_type": "U",
        "meta_norad_cat_id": 41026,
        "meta_element_set_no": 999,
        "meta_rev_at_epoch": 56325,
        "meta_bstar": 0.00025678886,
        "meta_mean_motion_dot": 6.249e-05,
        "meta_mean_motion_ddot": 0,
        "tle_line1": "1 41026U 15064A   25353.33354795  .00006249  00000+0  25679-3 0  9998",
        "tle_line2": "2 41026  97.2809 130.9400 0012611 105.0417 255.2218 15.24456025563256"
      },
      "geometry": {
        "type": "Point",
        "coordinates": [
          -59.308396763835,
          -55.22174614217529
        ]
      }
    },
    {
      "type": "Feature",
      "properties": {
        "norad_id": 41038,
        "name": "YAOGAN-29",
        "group": "resource",
        "lat": 12.658653620322495,
        "lon": 15.084260469480318,
        "alt_km": 621.7429036214744,
        "timestamp": "2025-12-19T16:54:43.908292+00:00",
        "meta_object_name": "YAOGAN-29",
        "meta_object_id": "2015-069A",
        "meta_epoch": "2025-12-19T07:08:16.872864",
        "meta_mean_motion": 14.82889951,
        "meta_eccentricity": 4.298e-05,
        "meta_inclination": 98.0213,
        "meta_ra_of_asc_node": 16.4907,
        "meta_arg_of_pericenter": 184.8804,
        "meta_mean_anomaly": 175.2405,
        "meta_ephemeris_type": 0,
        "meta_classification_type": "U",
        "meta_norad_cat_id": 41038,
        "meta_element_set_no": 999,
        "meta_rev_at_epoch": 54396,
        "meta_bstar": 8.1504967e-05,
        "meta_mean_motion_dot": 6.06e-06,
        "meta_mean_motion_ddot": 0,
        "tle_line1": "1 41038U 15069A   25353.29741751  .00000606  00000+0  81505-4 0  9995",
        "tle_line2": "2 41038  98.0213  16.4907 0000429 184.8804 175.2405 14.82889951543962"
      },
      "geometry": {
        "type": "Point",
        "coordinates": [
          15.084260469480318,
          12.658653620322495
        ]
      }
    },
    {
      "type": "Feature",
      "properties": {
        "norad_id": 41167,
        "name": "KENT RIDGE 1",
        "group": "resource",
        "lat": -14.963392187666013,
        "lon": 67.98695220802331,
        "alt_km": 495.169711291358,
        "timestamp": "2025-12-19T16:54:43.908303+00:00",
        "meta_object_name": "KENT RIDGE 1",
        "meta_object_id": "2015-077B",
        "meta_epoch": "2025-12-19T03:09:12.310272",
        "meta_mean_motion": 15.21684319,
        "meta_eccentricity": 0.00085071,
        "meta_inclination": 14.9781,
        "meta_ra_of_asc_node": 163.711,
        "meta_arg_of_pericenter": 221.3147,
        "meta_mean_anomaly": 138.6531,
        "meta_ephemeris_type": 0,
        "meta_classification_type": "U",
        "meta_norad_cat_id": 41167,
        "meta_element_set_no": 999,
        "meta_rev_at_epoch": 55361,
        "meta_bstar": 0.00013527237,
        "meta_mean_motion_dot": 3.907e-05,
        "meta_mean_motion_ddot": 0,
        "tle_line1": "1 41167U 15077B   25353.13139248  .00003907  00000+0  13527-3 0  9997",
        "tle_line2": "2 41167  14.9781 163.7110 0008507 221.3147 138.6531 15.21684319553617"
      },
      "geometry": {
        "type": "Point",
        "coordinates": [
          67.98695220802331,
          -14.963392187666013
        ]
      }
    },
    {
      "type": "Feature",
      "properties": {
        "norad_id": 41194,
        "name": "GAOFEN-4",
        "group": "resource",
        "lat": 0.04714331550713159,
        "lon": 87.90242458705595,
        "alt_km": 35785.14000813993,
        "timestamp": "2025-12-19T16:54:43.908315+00:00",
        "meta_object_name": "GAOFEN-4",
        "meta_object_id": "2015-083A",
        "meta_epoch": "2025-12-19T06:55:04.393056",
        "meta_mean_motion": 1.00273341,
        "meta_eccentricity": 0.00029276,
        "meta_inclination": 0.1869,
        "meta_ra_of_asc_node": 81.7775,
        "meta_arg_of_pericenter": 93.5117,
        "meta_mean_anomaly": 122.3296,
        "meta_ephemeris_type": 0,
        "meta_classification_type": "U",
        "meta_norad_cat_id": 41194,
        "meta_element_set_no": 999,
        "meta_rev_at_epoch": 3672,
        "meta_bstar": 0,
        "meta_mean_motion_dot": -3.1e-06,
        "meta_mean_motion_ddot": 0,
        "tle_line1": "1 41194U 15083A   25353.28824529 -.00000310  00000+0  00000+0 0  9997",
        "tle_line2": "2 41194   0.1869  81.7775 0002927  93.5117 122.3296  1.00273341 36720"
      },
      "geometry": {
        "type": "Point",
        "coordinates": [
          87.90242458705595,
          0.04714331550713159
        ]
      }
    },
    {
      "type": "Feature",
      "properties": {
        "norad_id": 41240,
        "name": "JASON-3",
        "group": "resource",
        "lat": -12.734797292398198,
        "lon": -31.051403239410202,
        "alt_km": 1313.1476675610838,
        "timestamp": "2025-12-19T16:54:43.908346+00:00",
        "meta_object_name": "JASON-3",
        "meta_object_id": "2016-002A",
        "meta_epoch": "2025-12-19T06:35:15.675072",
        "meta_mean_motion": 12.87626863,
        "meta_eccentricity": 0.00072062,
        "meta_inclination": 66.0398,
        "meta_ra_of_asc_node": 144.0855,
        "meta_arg_of_pericenter": 271.2132,
        "meta_mean_anomaly": 88.8061,
        "meta_ephemeris_type": 0,
        "meta_classification_type": "U",
        "meta_norad_cat_id": 41240,
        "meta_element_set_no": 999,
        "meta_rev_at_epoch": 46408,
        "meta_bstar": 3.9979306e-05,
        "meta_mean_motion_dot": -5.2e-07,
        "meta_mean_motion_ddot": 0,
        "tle_line1": "1 41240U 16002A   25353.27448698 -.00000052  00000+0  39979-4 0  9994",
        "tle_line2": "2 41240  66.0398 144.0855 0007206 271.2132  88.8061 12.87626863464087"
      },
      "geometry": {
        "type": "Point",
        "coordinates": [
          -31.051403239410202,
          -12.734797292398198
        ]
      }
    },
    {
      "type": "Feature",
      "properties": {
        "norad_id": 41335,
        "name": "SENTINEL-3A",
        "group": "resource",
        "lat": 71.49064599276396,
        "lon": -94.400238479536,
        "alt_km": 795.1156484861713,
        "timestamp": "2025-12-19T16:54:43.908360+00:00",
        "meta_object_name": "SENTINEL-3A",
        "meta_object_id": "2016-011A",
        "meta_epoch": "2025-12-19T06:18:59.793120",
        "meta_mean_motion": 14.26733106,
        "meta_eccentricity": 9.115e-05,
        "meta_inclination": 98.6307,
        "meta_ra_of_asc_node": 58.1845,
        "meta_arg_of_pericenter": 93.4063,
        "meta_mean_anomaly": 266.7222,
        "meta_ephemeris_type": 0,
        "meta_classification_type": "U",
        "meta_norad_cat_id": 41335,
        "meta_element_set_no": 999,
        "meta_rev_at_epoch": 51240,
        "meta_bstar": 6.2359976e-05,
        "meta_mean_motion_dot": 1.07e-06,
        "meta_mean_motion_ddot": 0,
        "tle_line1": "1 41335U 16011A   25353.26319205  .00000107  00000+0  62360-4 0  9999",
        "tle_line2": "2 41335  98.6307  58.1845 0000911  93.4063 266.7222 14.26733106512400"
      },
      "geometry": {
        "type": "Point",
        "coordinates": [
          -94.400238479536,
          71.49064599276396
        ]
      }
    },
    {
      "type": "Feature",
      "properties": {
        "norad_id": 41556,
        "name": "ZIYUAN 3-02 (ZY 3-02)",
        "group": "resource",
        "lat": 64.68058822427518,
        "lon": 51.802280010575316,
        "alt_km": 502.9009432136372,
        "timestamp": "2025-12-19T16:54:43.908371+00:00",
        "meta_object_name": "ZIYUAN 3-02 (ZY 3-02)",
        "meta_object_id": "2016-033A",
        "meta_epoch": "2025-12-19T07:09:04.037760",
        "meta_mean_motion": 15.21144897,
        "meta_eccentricity": 0.00109776,
        "meta_inclination": 97.4043,
        "meta_ra_of_asc_node": 67.3567,
        "meta_arg_of_pericenter": 221.5726,
        "meta_mean_anomaly": 138.4676,
        "meta_ephemeris_type": 0,
        "meta_classification_type": "U",
        "meta_norad_cat_id": 41556,
        "meta_element_set_no": 999,
        "meta_rev_at_epoch": 53063,
        "meta_bstar": 0.0002551583,
        "meta_mean_motion_dot": 5.622e-05,
        "meta_mean_motion_ddot": 0,
        "tle_line1": "1 41556U 16033A   25353.29796340  .00005622  00000+0  25516-3 0  9998",
        "tle_line2": "2 41556  97.4043  67.3567 0010977 221.5726 138.4676 15.21144897530637"
      },
      "geometry": {
        "type": "Point",
        "coordinates": [
          51.802280010575316,
          64.68058822427518
        ]
      }
    }
  ]
}